[{"OBJECT_NAME":"STARLINK-35079","OBJECT_ID":"2025-210AD","EPOCH":"2026-03-04T00:53:58.423200","MEAN_MOTION":15.30256548,"ECCENTRICITY":0.0001369,"INCLINATION":53.1597,"RA_OF_ASC_NODE":333.4772,"ARG_OF_PERICENTER":55.4513,"MEAN_ANOMALY":304.6617,"EPHEMERIS_TYPE":0,"CLASSIFICATION_TYPE":"U","NORAD_CAT_ID":65649,"ELEMENT_SET_NO":999,"REV_AT_EPOCH":2686,"BSTAR":0.0019678039,"MEAN_MOTION_DOT":0.00058484,"MEAN_MOTION_DDOT":0},{"OBJECT_NAME":"STARLINK-35328","OBJECT_ID":"2025-211A","EPOCH":"2026-03-04T12:59:26.518560","MEAN_MOTION":15.056754,"ECCENTRICITY":5.12e-5,"INCLINATION":97.6047,"RA_OF_ASC_NODE":108.9361,"ARG_OF_PERICENTER":306.7279,"MEAN_ANOMALY":53.3901,"EPHEMERIS_TYPE":0,"CLASSIFICATION_TYPE":"U","NORAD_CAT_ID":65652,"ELEMENT_SET_NO":999,"REV_AT_EPOCH":2626,"BSTAR":0.00070160849,"MEAN_MOTION_DOT":0.00010084,"MEAN_MOTION_DDOT":0},{"OBJECT_NAME":"STARLINK-34210","OBJECT_ID":"2025-211B","EPOCH":"2026-03-04T01:41:33.646848","MEAN_MOTION":15.05663009,"ECCENTRICITY":0.00012965,"INCLINATION":97.6026,"RA_OF_ASC_NODE":108.4832,"ARG_OF_PERICENTER":61.0867,"MEAN_ANOMALY":299.049,"EPHEMERIS_TYPE":0,"CLASSIFICATION_TYPE":"U","NORAD_CAT_ID":65653,"ELEMENT_SET_NO":999,"REV_AT_EPOCH":2619,"BSTAR":0.00045855952,"MEAN_MOTION_DOT":6.564e-5,"MEAN_MOTION_DDOT":0},{"OBJECT_NAME":"STARLINK-35227","OBJECT_ID":"2025-211C","EPOCH":"2026-03-04T03:09:18.807552","MEAN_MOTION":15.0566215,"ECCENTRICITY":0.0001076,"INCLINATION":97.6022,"RA_OF_ASC_NODE":108.5569,"ARG_OF_PERICENTER":96.9036,"MEAN_ANOMALY":263.2313,"EPHEMERIS_TYPE":0,"CLASSIFICATION_TYPE":"U","NORAD_CAT_ID":65654,"ELEMENT_SET_NO":999,"REV_AT_EPOCH":2620,"BSTAR":0.00077721517,"MEAN_MOTION_DOT":0.00011175,"MEAN_MOTION_DDOT":0},{"OBJECT_NAME":"STARLINK-35240","OBJECT_ID":"2025-211D","EPOCH":"2026-03-04T01:45:33.022368","MEAN_MOTION":15.05653401,"ECCENTRICITY":8.877e-5,"INCLINATION":97.6025,"RA_OF_ASC_NODE":108.4792,"ARG_OF_PERICENTER":83.0705,"MEAN_ANOMALY":277.0623,"EPHEMERIS_TYPE":0,"CLASSIFICATION_TYPE":"U","NORAD_CAT_ID":65655,"ELEMENT_SET_NO":999,"REV_AT_EPOCH":2619,"BSTAR":0.00058157063,"MEAN_MOTION_DOT":8.341e-5,"MEAN_MOTION_DDOT":0},{"OBJECT_NAME":"STARLINK-35344","OBJECT_ID":"2025-211E","EPOCH":"2026-03-04T03:13:16.398048","MEAN_MOTION":15.05652915,"ECCENTRICITY":9.536e-5,"INCLINATION":97.6022,"RA_OF_ASC_NODE":108.5531,"ARG_OF_PERICENTER":112.2246,"MEAN_ANOMALY":247.9082,"EPHEMERIS_TYPE":0,"CLASSIFICATION_TYPE":"U","NORAD_CAT_ID":65656,"ELEMENT_SET_NO":999,"REV_AT_EPOCH":2620,"BSTAR":0.00024745126,"MEAN_MOTION_DOT":3.512e-5,"MEAN_MOTION_DDOT":0},{"OBJECT_NAME":"STARLINK-34540","OBJECT_ID":"2025-211F","EPOCH":"2026-03-04T03:05:18.230208","MEAN_MOTION":15.05654793,"ECCENTRICITY":0.00017368,"INCLINATION":97.6027,"RA_OF_ASC_NODE":108.561,"ARG_OF_PERICENTER":126.5452,"MEAN_ANOMALY":233.5935,"EPHEMERIS_TYPE":0,"CLASSIFICATION_TYPE":"U","NORAD_CAT_ID":65657,"ELEMENT_SET_NO":999,"REV_AT_EPOCH":2620,"BSTAR":0.00034241748,"MEAN_MOTION_DOT":4.884e-5,"MEAN_MOTION_DDOT":0},{"OBJECT_NAME":"STARLINK-35282","OBJECT_ID":"2025-211G","EPOCH":"2026-03-04T02:57:19.728000","MEAN_MOTION":15.05657772,"ECCENTRICITY":0.00016622,"INCLINATION":97.6026,"RA_OF_ASC_NODE":108.5686,"ARG_OF_PERICENTER":103.0132,"MEAN_ANOMALY":257.1281,"EPHEMERIS_TYPE":0,"CLASSIFICATION_TYPE":"U","NORAD_CAT_ID":65658,"ELEMENT_SET_NO":999,"REV_AT_EPOCH":2620,"BSTAR":0.00063317718,"MEAN_MOTION_DOT":9.089e-5,"MEAN_MOTION_DDOT":0},{"OBJECT_NAME":"STARLINK-35120","OBJECT_ID":"2025-211H","EPOCH":"2026-03-04T03:01:18.614496","MEAN_MOTION":15.05654432,"ECCENTRICITY":0.00018572,"INCLINATION":97.6029,"RA_OF_ASC_NODE":108.5649,"ARG_OF_PERICENTER":139.7716,"MEAN_ANOMALY":220.3648,"EPHEMERIS_TYPE":0,"CLASSIFICATION_TYPE":"U","NORAD_CAT_ID":65659,"ELEMENT_SET_NO":999,"REV_AT_EPOCH":2620,"BSTAR":0.00032970214,"MEAN_MOTION_DOT":4.7e-5,"MEAN_MOTION_DDOT":0},{"OBJECT_NAME":"STARLINK-35246","OBJECT_ID":"2025-211J","EPOCH":"2026-03-04T02:53:21.715008","MEAN_MOTION":15.05658994,"ECCENTRICITY":0.0001828,"INCLINATION":97.6032,"RA_OF_ASC_NODE":108.5724,"ARG_OF_PERICENTER":90.8169,"MEAN_ANOMALY":269.3267,"EPHEMERIS_TYPE":0,"CLASSIFICATION_TYPE":"U","NORAD_CAT_ID":65660,"ELEMENT_SET_NO":999,"REV_AT_EPOCH":2620,"BSTAR":0.00057384177,"MEAN_MOTION_DOT":8.231e-5,"MEAN_MOTION_DDOT":0},{"OBJECT_NAME":"STARLINK-35220","OBJECT_ID":"2025-211K","EPOCH":"2026-03-04T02:49:20.658144","MEAN_MOTION":15.0565736,"ECCENTRICITY":0.00021613,"INCLINATION":97.6017,"RA_OF_ASC_NODE":108.5746,"ARG_OF_PERICENTER":97.6075,"MEAN_ANOMALY":262.5398,"EPHEMERIS_TYPE":0,"CLASSIFICATION_TYPE":"U","NORAD_CAT_ID":65661,"ELEMENT_SET_NO":999,"REV_AT_EPOCH":2620,"BSTAR":0.00016515112,"MEAN_MOTION_DOT":2.323e-5,"MEAN_MOTION_DDOT":0},{"OBJECT_NAME":"STARLINK-35176","OBJECT_ID":"2025-211L","EPOCH":"2026-03-04T02:45:22.165632","MEAN_MOTION":15.05651455,"ECCENTRICITY":0.00012902,"INCLINATION":97.6028,"RA_OF_ASC_NODE":108.5796,"ARG_OF_PERICENTER":119.855,"MEAN_ANOMALY":240.2805,"EPHEMERIS_TYPE":0,"CLASSIFICATION_TYPE":"U","NORAD_CAT_ID":65662,"ELEMENT_SET_NO":999,"REV_AT_EPOCH":2620,"BSTAR":0.00021485285,"MEAN_MOTION_DOT":3.041e-5,"MEAN_MOTION_DDOT":0},{"OBJECT_NAME":"STARLINK-35190","OBJECT_ID":"2025-211M","EPOCH":"2026-03-04T13:51:16.880544","MEAN_MOTION":15.05662429,"ECCENTRICITY":0.00015815,"INCLINATION":97.6033,"RA_OF_ASC_NODE":109.0423,"ARG_OF_PERICENTER":96.5492,"MEAN_ANOMALY":263.5915,"EPHEMERIS_TYPE":0,"CLASSIFICATION_TYPE":"U","NORAD_CAT_ID":65663,"ELEMENT_SET_NO":999,"REV_AT_EPOCH":2627,"BSTAR":0.00035817313,"MEAN_MOTION_DOT":5.113e-5,"MEAN_MOTION_DDOT":0},{"OBJECT_NAME":"STARLINK-35201","OBJECT_ID":"2025-211N","EPOCH":"2026-03-04T13:47:17.628576","MEAN_MOTION":15.05660151,"ECCENTRICITY":0.00013678,"INCLINATION":97.6034,"RA_OF_ASC_NODE":109.0456,"ARG_OF_PERICENTER":100.1397,"MEAN_ANOMALY":259.9984,"EPHEMERIS_TYPE":0,"CLASSIFICATION_TYPE":"U","NORAD_CAT_ID":65664,"ELEMENT_SET_NO":999,"REV_AT_EPOCH":2627,"BSTAR":0.0003451265,"MEAN_MOTION_DOT":4.924e-5,"MEAN_MOTION_DDOT":0},{"OBJECT_NAME":"STARLINK-35115","OBJECT_ID":"2025-211P","EPOCH":"2026-03-04T02:33:24.610176","MEAN_MOTION":15.05652333,"ECCENTRICITY":0.00013357,"INCLINATION":97.6027,"RA_OF_ASC_NODE":108.591,"ARG_OF_PERICENTER":118.9863,"MEAN_ANOMALY":241.1498,"EPHEMERIS_TYPE":0,"CLASSIFICATION_TYPE":"U","NORAD_CAT_ID":65665,"ELEMENT_SET_NO":999,"REV_AT_EPOCH":2620,"BSTAR":0.00022075037,"MEAN_MOTION_DOT":3.126e-5,"MEAN_MOTION_DDOT":0},{"OBJECT_NAME":"STARLINK-35181","OBJECT_ID":"2025-211Q","EPOCH":"2026-03-04T02:29:26.210112","MEAN_MOTION":15.05651987,"ECCENTRICITY":0.00014656,"INCLINATION":97.6022,"RA_OF_ASC_NODE":108.5949,"ARG_OF_PERICENTER":108.7115,"MEAN_ANOMALY":251.4271,"EPHEMERIS_TYPE":0,"CLASSIFICATION_TYPE":"U","NORAD_CAT_ID":65666,"ELEMENT_SET_NO":999,"REV_AT_EPOCH":2620,"BSTAR":0.00052916386,"MEAN_MOTION_DOT":7.583e-5,"MEAN_MOTION_DDOT":0}]
