STARLINK-35079          
1 65649U 25210AD  26063.03748175  .00058484  00000+0  19678-2 0  9993
2 65649  53.1597 333.4772 0001369  55.4513 304.6617 15.30256548 26861
STARLINK-35328          
1 65652U 25211A   26063.54127915  .00010084  00000+0  70161-3 0  9996
2 65652  97.6047 108.9361 0000512 306.7279  53.3901 15.05675400 26269
STARLINK-34210          
1 65653U 25211B   26063.07052832  .00006564  00000+0  45856-3 0  9991
2 65653  97.6026 108.4832 0001296  61.0867 299.0490 15.05663009 26195
STARLINK-35227          
1 65654U 25211C   26063.13146768  .00011175  00000+0  77722-3 0  9992
2 65654  97.6022 108.5569 0001076  96.9036 263.2313 15.05662150 26206
STARLINK-35240          
1 65655U 25211D   26063.07329887  .00008341  00000+0  58157-3 0  9993
2 65655  97.6025 108.4792 0000887  83.0705 277.0623 15.05653401 26190
STARLINK-35344          
1 65656U 25211E   26063.13421757  .00003512  00000+0  24745-3 0  9991
2 65656  97.6022 108.5531 0000953 112.2246 247.9082 15.05652915 26205
STARLINK-34540          
1 65657U 25211F   26063.12868322  .00004884  00000+0  34242-3 0  9990
2 65657  97.6027 108.5610 0001736 126.5452 233.5935 15.05654793 26200
STARLINK-35282          
1 65658U 25211G   26063.12314500  .00009089  00000+0  63318-3 0  9993
2 65658  97.6026 108.5686 0001662 103.0132 257.1281 15.05657772 26202
STARLINK-35120          
1 65659U 25211H   26063.12590989  .00004700  00000+0  32970-3 0  9996
2 65659  97.6029 108.5649 0001857 139.7716 220.3648 15.05654432 26204
STARLINK-35246          
1 65660U 25211J   26063.12039022  .00008231  00000+0  57384-3 0  9993
2 65660  97.6032 108.5724 0001828  90.8169 269.3267 15.05658994 26208
STARLINK-35220          
1 65661U 25211K   26063.11760021  .00002323  00000+0  16515-3 0  9990
2 65661  97.6017 108.5746 0002161  97.6075 262.5398 15.05657360 26204
STARLINK-35176          
1 65662U 25211L   26063.11483988  .00003041  00000+0  21485-3 0  9995
2 65662  97.6028 108.5796 0001290 119.8550 240.2805 15.05651455 26204
STARLINK-35190          
1 65663U 25211M   26063.57727871  .00005113  00000+0  35817-3 0  9994
2 65663  97.6033 109.0423 0001581  96.5492 263.5915 15.05662429 26273
STARLINK-35201          
1 65664U 25211N   26063.57450959  .00004924  00000+0  34513-3 0  9996
2 65664  97.6034 109.0456 0001367 100.1397 259.9984 15.05660151 26274
STARLINK-35115          
1 65665U 25211P   26063.10653484  .00003126  00000+0  22075-3 0  9997
2 65665  97.6027 108.5910 0001335 118.9863 241.1498 15.05652333 26205
STARLINK-35181          
1 65666U 25211Q   26063.10377558  .00007583  00000+0  52916-3 0  9991
2 65666  97.6022 108.5949 0001465 108.7115 251.4271 15.05651987 26201
